{"type": "FeatureCollection", "features": [ {"type": "Feature", "properties": {"norad_id": 32125, "name": "FENGYUN 1C DEB", "group": "fengyun-1c-debris", "lat": -34.1366022597899, "lon": -25.131611493916676, "alt_km": 544.8143578563249, "timestamp": "2025-12-14T03:55:53.072881+00:00", "meta": {"OBJECT_NAME": "FENGYUN 1C DEB", "OBJECT_ID": "1999-025CRT", "EPOCH": "2025-11-30T16:29:46.563072", "MEAN_MOTION": 14.69027096, "ECCENTRICITY": 0.01775541, "INCLINATION": 99.061, "RA_OF_ASC_NODE": 313.7121, "ARG_OF_PERICENTER": 0.429, "MEAN_ANOMALY": 359.7033, "EPHEMERIS_TYPE": 0, "CLASSIFICATION_TYPE": "U", "NORAD_CAT_ID": 32125, "ELEMENT_SET_NO": 999, "REV_AT_EPOCH": 70346, "BSTAR": 0.0033542642, "MEAN_MOTION_DOT": 0.00025065, "MEAN_MOTION_DDOT": 0}, "tle": {"line1": "1 32125U 99025CRT 25334.68734448  .00025065  00000+0  33543-2 0  9996", "line2": "2 32125  99.0610 313.7121 0177554   0.4290 359.7033 14.69027096703466"}}, "geometry": {"type": "Point", "coordinates": [-25.131611493916676, -34.1366022597899]}}, {"type": "Feature", "properties": {"norad_id": 32126, "name": "FENGYUN 1C DEB", "group": "fengyun-1c-debris", "lat": -61.49983494766221, "lon": 26.93780429824236, "alt_km": 848.0902364695085, "timestamp": "2025-12-14T03:55:53.072891+00:00", "meta": {"OBJECT_NAME": "FENGYUN 1C DEB", "OBJECT_ID": "1999-025CRU", "EPOCH": "2025-12-08T21:03:50.440032", "MEAN_MOTION": 13.56787693, "ECCENTRICITY": 0.0281203, "INCLINATION": 99.1098, "RA_OF_ASC_NODE": 219.2267, "ARG_OF_PERICENTER": 265.4353, "MEAN_ANOMALY": 91.4619, "EPHEMERIS_TYPE": 0, "CLASSIFICATION_TYPE": "U", "NORAD_CAT_ID": 32126, "ELEMENT_SET_NO": 999, "REV_AT_EPOCH": 61662, "BSTAR": 0.0016621, "MEAN_MOTION_DOT": 1.479e-05, "MEAN_MOTION_DDOT": 0}, "tle": {"line1": "1 32126U 99025CRU 25342.87766713  .00001479  00000+0  16621-2 0  9998", "line2": "2 32126  99.1098 219.2267 0281203 265.4353  91.4619 13.56787693616621"}}, "geometry": {"type": "Point", "coordinates": [26.93780429824236, -61.49983494766221]}}, {"type": "Feature", "properties": {"norad_id": 32128, "name": "FENGYUN 1C DEB", "group": "fengyun-1c-debris", "lat": 17.19854224788721, "lon": 31.53569649945922, "alt_km": 1182.1409649500329, "timestamp": "2025-12-14T03:55:53.072901+00:00", "meta": {"OBJECT_NAME": "FENGYUN 1C DEB", "OBJECT_ID": "1999-025CRW", "EPOCH": "2025-12-11T08:40:09.395904", "MEAN_MOTION": 13.94214757, "ECCENTRICITY": 0.03970223, "INCLINATION": 99.0309, "RA_OF_ASC_NODE": 31.6094, "ARG_OF_PERICENTER": 226.645, "MEAN_ANOMALY": 130.0993, "EPHEMERIS_TYPE": 0, "CLASSIFICATION_TYPE": "U", "NORAD_CAT_ID": 32128, "ELEMENT_SET_NO": 999, "REV_AT_EPOCH": 62966, "BSTAR": 0.0010859874, "MEAN_MOTION_DOT": 2.732e-05, "MEAN_MOTION_DDOT": 0}, "tle": {"line1": "1 32128U 99025CRW 25345.36121986  .00002732  00000+0  10860-2 0  9996", "line2": "2 32128  99.0309  31.6094 0397022 226.6450 130.0993 13.94214757629666"}}, "geometry": {"type": "Point", "coordinates": [31.53569649945922, 17.19854224788721]}}, {"type": "Feature", "properties": {"norad_id": 32129, "name": "FENGYUN 1C DEB", "group": "fengyun-1c-debris", "lat": 79.4929355269343, "lon": 47.258984076419324, "alt_km": 761.0198892408525, "timestamp": "2025-12-14T03:55:53.072911+00:00", "meta": {"OBJECT_NAME": "FENGYUN 1C DEB", "OBJECT_ID": "1999-025CRX", "EPOCH": "2025-12-12T14:37:33.784320", "MEAN_MOTION": 14.28494713, "ECCENTRICITY": 0.00677546, "INCLINATION": 99.0606, "RA_OF_ASC_NODE": 105.0048, "ARG_OF_PERICENTER": 34.3937, "MEAN_ANOMALY": 340.496, "EPHEMERIS_TYPE": 0, "CLASSIFICATION_TYPE": "U", "NORAD_CAT_ID": 32129, "ELEMENT_SET_NO": 999, "REV_AT_EPOCH": 94225, "BSTAR": 0.003224381, "MEAN_MOTION_DOT": 8.24e-05, "MEAN_MOTION_DDOT": 0}, "tle": {"line1": "1 32129U 99025CRX 25346.60941880  .00008240  00000+0  32244-2 0  9998", "line2": "2 32129  99.0606 105.0048 0067754  34.3937 340.4960 14.28494713942256"}}, "geometry": {"type": "Point", "coordinates": [47.258984076419324, 79.4929355269343]}}, {"type": "Feature", "properties": {"norad_id": 32130, "name": "FENGYUN 1C DEB", "group": "fengyun-1c-debris", "lat": -3.189038738136203, "lon": 155.2255245040689, "alt_km": 719.2171911184523, "timestamp": "2025-12-14T03:55:53.072921+00:00", "meta": {"OBJECT_NAME": "FENGYUN 1C DEB", "OBJECT_ID": "1999-025CRY", "EPOCH": "2025-12-12T06:50:38.827104", "MEAN_MOTION": 14.37545048, "ECCENTRICITY": 0.00825122, "INCLINATION": 98.9038, "RA_OF_ASC_NODE": 152.7804, "ARG_OF_PERICENTER": 331.5241, "MEAN_ANOMALY": 28.1449, "EPHEMERIS_TYPE": 0, "CLASSIFICATION_TYPE": "U", "NORAD_CAT_ID": 32130, "ELEMENT_SET_NO": 999, "REV_AT_EPOCH": 96228, "BSTAR": 0.00063289751, "MEAN_MOTION_DOT": 1.924e-05, "MEAN_MOTION_DDOT": 0}, "tle": {"line1": "1 32130U 99025CRY 25346.28517161  .00001924  00000+0  63290-3 0  9993", "line2": "2 32130  98.9038 152.7804 0082512 331.5241  28.1449 14.37545048962288"}}, "geometry": {"type": "Point", "coordinates": [155.2255245040689, -3.189038738136203]}}, {"type": "Feature", "properties": {"norad_id": 32133, "name": "FENGYUN 1C DEB", "group": "fengyun-1c-debris", "lat": -81.45438822232816, "lon": 70.09592609614783, "alt_km": 865.3689140228444, "timestamp": "2025-12-14T03:55:53.072931+00:00", "meta": {"OBJECT_NAME": "FENGYUN 1C DEB", "OBJECT_ID": "1999-025CSB", "EPOCH": "2025-12-13T06:20:12.624864", "MEAN_MOTION": 14.18072081, "ECCENTRICITY": 0.00364291, "INCLINATION": 98.4319, "RA_OF_ASC_NODE": 348.4451, "ARG_OF_PERICENTER": 99.3887, "MEAN_ANOMALY": 261.1411, "EPHEMERIS_TYPE": 0, "CLASSIFICATION_TYPE": "U", "NORAD_CAT_ID": 32133, "ELEMENT_SET_NO": 999, "REV_AT_EPOCH": 94982, "BSTAR": 0.00029202222, "MEAN_MOTION_DOT": 5.62e-06, "MEAN_MOTION_DDOT": 0}, "tle": {"line1": "1 32133U 99025CSB 25347.26403501  .00000562  00000+0  29202-3 0  9999", "line2": "2 32133  98.4319 348.4451 0036429  99.3887 261.1411 14.18072081949825"}}, "geometry": {"type": "Point", "coordinates": [70.09592609614783, -81.45438822232816]}}, {"type": "Feature", "properties": {"norad_id": 32134, "name": "FENGYUN 1C DEB", "group": "fengyun-1c-debris", "lat": 41.52318758741592, "lon": 179.01795558931002, "alt_km": 911.0223115771596, "timestamp": "2025-12-14T03:55:53.072941+00:00", "meta": {"OBJECT_NAME": "FENGYUN 1C DEB", "OBJECT_ID": "1999-025CSC", "EPOCH": "2025-12-12T19:46:13.278720", "MEAN_MOTION": 14.21556709, "ECCENTRICITY": 0.02589769, "INCLINATION": 98.5953, "RA_OF_ASC_NODE": 350.0151, "ARG_OF_PERICENTER": 263.3717, "MEAN_ANOMALY": 223.0495, "EPHEMERIS_TYPE": 0, "CLASSIFICATION_TYPE": "U", "NORAD_CAT_ID": 32134, "ELEMENT_SET_NO": 999, "REV_AT_EPOCH": 95148, "BSTAR": 0.0010048423, "MEAN_MOTION_DOT": 3.046e-05, "MEAN_MOTION_DDOT": 0}, "tle": {"line1": "1 32134U 99025CSC 25346.82376480  .00003046  00000+0  10048-2 0  9993", "line2": "2 32134  98.5953 350.0151 0258976 263.3717 223.0495 14.21556709951487"}}, "geometry": {"type": "Point", "coordinates": [179.01795558931002, 41.52318758741592]}}, {"type": "Feature", "properties": {"norad_id": 32137, "name": "FENGYUN 1C DEB", "group": "fengyun-1c-debris", "lat": -41.970848724681304, "lon": -72.19385798447325, "alt_km": 759.7994686409866, "timestamp": "2025-12-14T03:55:53.072951+00:00", "meta": {"OBJECT_NAME": "FENGYUN 1C DEB", "OBJECT_ID": "1999-025CSF", "EPOCH": "2025-12-12T03:55:05.430720", "MEAN_MOTION": 14.81229537, "ECCENTRICITY": 0.01876242, "INCLINATION": 98.4418, "RA_OF_ASC_NODE": 113.3755, "ARG_OF_PERICENTER": 35.9319, "MEAN_ANOMALY": 325.4341, "EPHEMERIS_TYPE": 0, "CLASSIFICATION_TYPE": "U", "NORAD_CAT_ID": 32137, "ELEMENT_SET_NO": 999, "REV_AT_EPOCH": 66722, "BSTAR": 0.0012143683, "MEAN_MOTION_DOT": 0.00012783, "MEAN_MOTION_DDOT": 0}, "tle": {"line1": "1 32137U 99025CSF 25346.16325730  .00012783  00000+0  12144-2 0  9992", "line2": "2 32137  98.4418 113.3755 0187624  35.9319 325.4341 14.81229537667222"}}, "geometry": {"type": "Point", "coordinates": [-72.19385798447325, -41.970848724681304]}}, {"type": "Feature", "properties": {"norad_id": 32141, "name": "FENGYUN 1C DEB", "group": "fengyun-1c-debris", "lat": 12.775594351115668, "lon": 172.50670559235093, "alt_km": 840.2572610150428, "timestamp": "2025-12-14T03:55:53.072961+00:00", "meta": {"OBJECT_NAME": "FENGYUN 1C DEB", "OBJECT_ID": "1999-025CSK", "EPOCH": "2025-11-20T23:04:46.058016", "MEAN_MOTION": 14.03501767, "ECCENTRICITY": 0.00731678, "INCLINATION": 98.7436, "RA_OF_ASC_NODE": 328.1999, "ARG_OF_PERICENTER": 269.2169, "MEAN_ANOMALY": 90.0615, "EPHEMERIS_TYPE": 0, "CLASSIFICATION_TYPE": "U", "NORAD_CAT_ID": 32141, "ELEMENT_SET_NO": 999, "REV_AT_EPOCH": 94638, "BSTAR": 0.00056632309, "MEAN_MOTION_DOT": 8.66e-06, "MEAN_MOTION_DDOT": 0}, "tle": {"line1": "1 32141U 99025CSK 25324.96164419  .00000866  00000+0  56632-3 0  9996", "line2": "2 32141  98.7436 328.1999 0073167 269.2169  90.0615 14.03501767946385"}}, "geometry": {"type": "Point", "coordinates": [172.50670559235093, 12.775594351115668]}}, {"type": "Feature", "properties": {"norad_id": 32143, "name": "FENGYUN 1C DEB", "group": "fengyun-1c-debris", "lat": -26.035390228153254, "lon": 140.8149416068648, "alt_km": 852.5060004136321, "timestamp": "2025-12-14T03:55:53.072971+00:00", "meta": {"OBJECT_NAME": "FENGYUN 1C DEB", "OBJECT_ID": "1999-025CSM", "EPOCH": "2025-12-03T04:28:30.343584", "MEAN_MOTION": 14.17959367, "ECCENTRICITY": 0.01041232, "INCLINATION": 98.5963, "RA_OF_ASC_NODE": 314.4234, "ARG_OF_PERICENTER": 136.0042, "MEAN_ANOMALY": 224.9481, "EPHEMERIS_TYPE": 0, "CLASSIFICATION_TYPE": "U", "NORAD_CAT_ID": 32143, "ELEMENT_SET_NO": 999, "REV_AT_EPOCH": 95798, "BSTAR": 0.00020859227, "MEAN_MOTION_DOT": 4.09e-06, "MEAN_MOTION_DDOT": 0}, "tle": {"line1": "1 32143U 99025CSM 25337.18646231  .00000409  00000+0  20859-3 0  9998", "line2": "2 32143  98.5963 314.4234 0104123 136.0042 224.9481 14.17959367957983"}}, "geometry": {"type": "Point", "coordinates": [140.8149416068648, -26.035390228153254]}}]}